NORAD_CAT_ID,OBJECT_NAME,OBJECT_TYPE,EPOCH,MEAN_MOTION,ECCENTRICITY,INCLINATION,RA_OF_ASC_NODE,ARG_OF_PERICENTER,MEAN_ANOMALY,BSTAR,MEAN_MOTION_DOT,MEAN_MOTION_DDOT,TLE_LINE0,TLE_LINE1,TLE_LINE2,SEMIMAJOR_AXIS,PERIOD,APOGEE,PERIGEE,DECAYED
53748.0,STARLINK-4669,PAYLOAD,2024-02-05 12:49:02,15.08032293,0.0001614,53.2164,90.0068,95.4445,264.6731,0.0004824,7.232e-05,0.0,0 STARLINK-4669,1 53748U 22107BA  24036.53405232  .00007232  00000-0  48240-3 0  9993,2 53748  53.2164  90.0068 0001614  95.4445 264.6731 15.08032293 79385,6920.35,95.489,543.332,541.098,0.0
53748.0,STARLINK-4669,PAYLOAD,2024-02-06 09:29:43,15.08024944,0.0001938,53.2186,86.1413,84.2759,275.8454,0.00018753,2.634e-05,0.0,0 STARLINK-4669,1 53748U 22107BA  24037.39564343  .00002634  00000-0  18753-3 0  9994,2 53748  53.2186  86.1413 0001938  84.2759 275.8454 15.08024944 78730,6920.373,95.489,543.579,540.897,0.0
53748.0,STARLINK-4669,PAYLOAD,2024-02-06 12:40:35,15.08029169,0.0001871,53.2181,85.5426,79.4238,280.6965,0.00025593,3.7e-05,0.0,0 STARLINK-4669,1 53748U 22107BA  24037.52819261  .00003700  00000-0  25593-3 0  9996,2 53748  53.2181  85.5426 0001871  79.4238 280.6965 15.08029169 79530,6920.36,95.489,543.52,540.93,0.0
53748.0,STARLINK-4669,PAYLOAD,2024-02-07 09:21:16,15.0804282,0.0001588,53.2164,81.6845,91.7992,268.3182,0.00046304,6.932e-05,0.0,0 STARLINK-4669,1 53748U 22107BA  24038.38977433  .00006932  00000-0  46304-3 0  9990,2 53748  53.2164  81.6845 0001588  91.7992 268.3182 15.08042820 78882,6920.318,95.488,543.282,541.084,0.0
53748.0,STARLINK-4669,PAYLOAD,2024-02-07 12:32:08,15.08047664,0.0001596,53.2168,81.0891,93.0007,267.1167,0.00039794,5.917e-05,0.0,0 STARLINK-4669,1 53748U 22107BA  24038.52232023  .00005917  00000-0  39794-3 0  9992,2 53748  53.2168  81.0891 0001596  93.0007 267.1167 15.08047664 79682,6920.303,95.488,543.273,541.064,0.0
53748.0,STARLINK-4669,PAYLOAD,2024-02-08 02:51:05,15.08019218,0.0001416,53.2187,78.4135,98.4882,261.6271,-6.1037e-05,-1.235e-05,0.0,0 STARLINK-4669,1 53748U 22107BA  24039.11881582 -.00001235  00000-0 -61037-4 0  9995,2 53748  53.2187  78.4135 0001416  98.4882 261.6271 15.08019218 78997,6920.39,95.489,543.235,541.275,0.0
53748.0,STARLINK-4669,PAYLOAD,2024-02-08 09:12:50,15.08022989,0.0001771,53.2178,77.226,99.8253,260.2939,-1.681e-05,-5.47e-06,0.0,0 STARLINK-4669,1 53748U 22107BA  24039.38391787 -.00000547  00000-0 -16810-4 0  9991,2 53748  53.2178  77.2260 0001771  99.8253 260.2939 15.08022989 79811,6920.379,95.489,543.469,541.018,0.0
53748.0,STARLINK-4669,PAYLOAD,2024-02-09 09:04:24,15.08029565,0.000173,53.2183,72.7705,95.6717,264.4472,-7.9303e-05,-1.52e-05,0.0,0 STARLINK-4669,1 53748U 22107BA  24040.37805997 -.00001520  00000-0 -79303-4 0  9993,2 53748  53.2183  72.7705 0001730  95.6717 264.4472 15.08029565 79180,6920.359,95.489,543.421,541.026,0.0
53748.0,STARLINK-4669,PAYLOAD,2024-02-09 12:15:16,15.08024111,0.0001646,53.2185,72.1742,93.2734,266.8446,3.5566e-05,2.68e-06,0.0,0 STARLINK-4669,1 53748U 22107BA  24040.51061262  .00000268  00000-0  35566-4 0  9997,2 53748  53.2185  72.1742 0001646  93.2734 266.8446 15.08024111 79983,6920.375,95.489,543.379,541.101,0.0
53748.0,STARLINK-4669,PAYLOAD,2024-02-10 00:58:47,15.08011133,0.0001849,53.2182,69.7965,103.6779,256.4419,7.4549e-05,8.74e-06,0.0,0 STARLINK-4669,1 53748U 22107BA  24041.04082937  .00000874  00000-0  74549-4 0  9995,2 53748  53.2182  69.7965 0001849 103.6779 256.4419 15.08011133 79287,6920.415,95.49,543.56,541.0,0.0
53748.0,STARLINK-4669,PAYLOAD,2024-02-10 08:55:58,15.08015688,0.0001934,53.2193,68.3153,104.761,255.3596,0.00012693,1.69e-05,0.0,0 STARLINK-4669,1 53748U 22107BA  24041.37220766  .00001690  00000-0  12693-3 0  9993,2 53748  53.2193  68.3153 0001934 104.7610 255.3596 15.08015688 80111,6920.401,95.49,543.605,540.928,0.0
53748.0,STARLINK-4669,PAYLOAD,2024-02-11 11:58:24,15.08030127,0.0001867,53.218,63.2624,92.8757,267.2449,0.00023254,3.336e-05,0.0,0 STARLINK-4669,1 53748U 22107BA  24042.49889421  .00003336  00000-0  23254-3 0  9990,2 53748  53.2180  63.2624 0001867  92.8757 267.2449 15.08030127 79503,6920.357,95.489,543.514,540.93,0.0
53748.0,STARLINK-4669,PAYLOAD,2024-02-12 08:39:05,15.08034858,0.0002108,53.218,59.3982,77.0815,283.0413,0.00023792,3.42e-05,0.0,0 STARLINK-4669,1 53748U 22107BA  24043.36047952  .00003420  00000-0  23792-3 0  9993,2 53748  53.2180  59.3982 0002108  77.0815 283.0413 15.08034858 80419,6920.342,95.489,543.666,540.749,0.0
53748.0,STARLINK-4669,PAYLOAD,2024-02-13 00:33:28,15.08021917,0.00018,53.2188,56.4262,102.0673,258.052,-5.874e-05,-1.2e-05,0.0,0 STARLINK-4669,1 53748U 22107BA  24044.02324305 -.00001200  00000-0 -58740-4 0  9995,2 53748  53.2188  56.4262 0001800 102.0673 258.0520 15.08021917 79731,6920.382,95.489,543.493,541.001,0.0
53748.0,STARLINK-4669,PAYLOAD,2024-02-13 06:55:13,15.08021508,0.0001769,53.2196,55.2376,93.3042,266.8152,-3.0146e-05,-7.55e-06,0.0,0 STARLINK-4669,1 53748U 22107BA  24044.28834894 -.00000755  00000-0 -30146-4 0  9996,2 53748  53.2196  55.2376 0001769  93.3042 266.8152 15.08021508 80555,6920.383,95.489,543.473,541.024,0.0
53748.0,STARLINK-4669,PAYLOAD,2024-02-13 18:03:17,15.08018565,0.000182,53.22,53.1576,96.8414,263.2785,-3.4136e-06,-3.39e-06,0.0,0 STARLINK-4669,1 53748U 22107BA  24044.75228393 -.00000339  00000-0 -34136-5 0  9991,2 53748  53.2200  53.1576 0001820  96.8414 263.2785 15.08018565 80629,6920.392,95.49,543.517,540.998,0.0
53748.0,STARLINK-4669,PAYLOAD,2024-02-14 05:11:21,15.08011468,0.0001979,53.2177,51.0746,115.5223,244.5974,-0.00019249,-3.28e-05,0.0,0 STARLINK-4669,1 53748U 22107BA  24045.21622093 -.00003280  00000-0 -19249-3 0  9992,2 53748  53.2177  51.0746 0001979 115.5223 244.5974 15.08011468 79917,6920.414,95.49,543.649,540.909,0.0
53748.0,STARLINK-4669,PAYLOAD,2024-02-14 06:46:48,15.08006781,0.0001948,53.2184,50.782,81.28,278.8412,-0.00019396,-3.302e-05,0.0,0 STARLINK-4669,1 53748U 22107BA  24045.28250250 -.00003302  00000-0 -19396-3 0  9999,2 53748  53.2184  50.7820 0001948  81.2800 278.8412 15.08006781 79920,6920.428,95.49,543.641,540.945,0.0
53748.0,STARLINK-4669,PAYLOAD,2024-02-15 03:27:29,15.08025229,0.0001382,53.2186,46.9247,67.5021,292.6117,0.00041647,6.203e-05,0.0,0 STARLINK-4669,1 53748U 22107BA  24046.14408570  .00006203  00000-0  41647-3 0  9990,2 53748  53.2186  46.9247 0001382  67.5021 292.6117 15.08025229 80056,6920.372,95.489,543.193,541.281,0.0
53748.0,STARLINK-4669,PAYLOAD,2024-02-15 06:38:20,15.08038596,0.0001348,53.2189,46.3258,97.0631,263.0514,0.0005383,8.106e-05,0.0,0 STARLINK-4669,1 53748U 22107BA  24046.27662982  .00008106  00000-0  53830-3 0  9994,2 53748  53.2189  46.3258 0001348  97.0631 263.0514 15.08038596 80854,6920.331,95.488,543.129,541.263,0.0
53748.0,STARLINK-4669,PAYLOAD,2024-02-16 04:54:28,15.08036338,0.0001412,53.2188,42.1656,109.1459,250.9685,0.00036893,5.463e-05,0.0,0 STARLINK-4669,1 53748U 22107BA  24047.20449675  .00005463  00000-0  36893-3 0  9993,2 53748  53.2188  42.1656 0001412 109.1459 250.9685 15.08036338 80210,6920.338,95.488,543.18,541.226,0.0
53748.0,STARLINK-4669,PAYLOAD,2024-02-16 06:29:54,15.08045964,0.0001173,53.2186,41.8686,99.5487,260.5637,0.00061656,9.329e-05,0.0,0 STARLINK-4669,1 53748U 22107BA  24047.27076987  .00009329  00000-0  61656-3 0  9992,2 53748  53.2186  41.8686 0001173  99.5487 260.5637 15.08045964 81001,6920.309,95.488,542.985,541.362,0.0
53748.0,STARLINK-4669,PAYLOAD,2024-02-17 03:10:35,15.08027491,0.000137,53.2188,38.0048,105.3778,254.7365,0.00094976,0.00014529,0.0,0 STARLINK-4669,1 53748U 22107BA  24048.13236074  .00014529  00000-0  94976-3 0  9992,2 53748  53.2188  38.0048 0001370 105.3778 254.7365 15.08027491 80356,6920.365,95.489,543.178,541.282,0.0
53748.0,STARLINK-4669,PAYLOAD,2024-02-17 06:21:28,15.08028201,0.0001239,53.2185,37.4117,97.753,262.3603,0.00084561,0.00012902,0.0,0 STARLINK-4669,1 53748U 22107BA  24048.26491277  .00012902  00000-0  84561-3 0  9996,2 53748  53.2185  37.4117 0001239  97.7530 262.3603 15.08028201 81156,6920.363,95.489,543.085,541.37,0.0
53748.0,STARLINK-4669,PAYLOAD,2024-02-17 15:54:05,15.08028474,0.0001141,53.2185,35.6299,99.6666,260.4455,0.00037694,5.587e-05,0.0,0 STARLINK-4669,1 53748U 22107BA  24048.66256693  .00005587  00000-0  37694-3 0  9997,2 53748  53.2185  35.6299 0001141  99.6666 260.4455 15.08028474 80436,6920.362,95.489,543.017,541.437,0.0
53748.0,STARLINK-4669,PAYLOAD,2024-02-18 03:02:09,15.08023875,0.000114,53.2187,33.548,87.2237,272.8885,0.0002128,3.028e-05,0.0,0 STARLINK-4669,1 53748U 22107BA  24049.12650057  .00003028  00000-0  21280-3 0  9993,2 53748  53.2187  33.5480 0001140  87.2237 272.8885 15.08023875 80505,6920.376,95.489,543.03,541.452,0.0
53748.0,STARLINK-4669,PAYLOAD,2024-02-18 06:13:02,15.08030666,0.0001504,53.2198,32.9558,93.6703,266.4461,0.00032349,4.754e-05,0.0,0 STARLINK-4669,1 53748U 22107BA  24049.25905185  .00004754  00000-0  32349-3 0  9997,2 53748  53.2198  32.9558 0001504  93.6703 266.4461 15.08030666 81303,6920.355,95.489,543.261,541.179,0.0
53748.0,STARLINK-4669,PAYLOAD,2024-02-18 15:45:39,15.08026921,0.0001185,53.2185,31.1709,92.1952,267.9175,0.00036293,5.368e-05,0.0,0 STARLINK-4669,1 53748U 22107BA  24049.65670644  .00005368  00000-0  36293-3 0  9994,2 53748  53.2185  31.1709 0001185  92.1952 267.9175 15.08026921 81366,6920.367,95.489,543.052,541.412,0.0
53748.0,STARLINK-4669,PAYLOAD,2024-02-19 07:40:01,15.08035181,0.0001616,53.2192,28.1982,91.9819,268.1358,0.00044019,6.574e-05,0.0,0 STARLINK-4669,1 53748U 22107BA  24050.31946329  .00006574  00000-0  44019-3 0  9990,2 53748  53.2192  28.1982 0001616  91.9819 268.1358 15.08035181 80689,6920.341,95.488,543.325,541.088,0.0
53748.0,STARLINK-4669,PAYLOAD,2024-02-19 15:37:13,15.08017731,0.0001824,53.2185,26.7169,81.6368,278.483,-1.9832e-05,-5.94e-06,0.0,0 STARLINK-4669,1 53748U 22107BA  24050.65085020 -.00000594  00000-0 -19832-4 0  9993,2 53748  53.2185  26.7169 0001824  81.6368 278.4830 15.08017731 80734,6920.395,95.49,543.522,540.998,0.0
